[
    {
        "Altitude(m)": 571293.8871700306,
        "Argument of Periapsis(deg)": 0.019868973332140504,
        "Eccentricity": 0.0,
        "Inclination(deg)": 53.0,
        "Latitude(deg)": -51.73337047475778,
        "Longitude(deg)": 145.79732879627906,
        "Mean Anomaly(deg)": -78.81612139726725,
        "RAAN(deg)": 319.97043010558406,
        "Satellite Name": "Starlink Shell 1 1423",
        "Satellite Number": 1423,
        "Semi-Major Axis(m)": 6931778.249405717,
        "Time(s)": 570
    },
    {
        "Altitude(m)": 571231.310381675,
        "Argument of Periapsis(deg)": 0.02021755181165174,
        "Eccentricity": 0.0,
        "Inclination(deg)": 53.0,
        "Latitude(deg)": -51.57363526294289,
        "Longitude(deg)": 146.72692184239875,
        "Mean Anomaly(deg)": -78.18929019371055,
        "RAAN(deg)": 319.96991133550654,
        "Satellite Name": "Starlink Shell 1 1423",
        "Satellite Number": 1423,
        "Semi-Major Axis(m)": 6931778.249405717,
        "Time(s)": 580
    },
    {
        "Altitude(m)": 571165.4967356399,
        "Argument of Periapsis(deg)": 0.020566130291162974,
        "Eccentricity": 0.0,
        "Inclination(deg)": 53.0,
        "Latitude(deg)": -51.40592353362834,
        "Longitude(deg)": 147.6495772900089,
        "Mean Anomaly(deg)": -77.5624589901538,
        "RAAN(deg)": 319.96939256542913,
        "Satellite Name": "Starlink Shell 1 1423",
        "Satellite Number": 1423,
        "Semi-Major Axis(m)": 6931778.249405717,
        "Time(s)": 590
    },
    {
        "Altitude(m)": 571096.4724285068,
        "Argument of Periapsis(deg)": 0.020914708770674213,
        "Eccentricity": 0.0,
        "Inclination(deg)": 53.0,
        "Latitude(deg)": -51.230339789171076,
        "Longitude(deg)": 148.56505572807416,
        "Mean Anomaly(deg)": -76.93562778659715,
        "RAAN(deg)": 319.96887379535167,
        "Satellite Name": "Starlink Shell 1 1423",
        "Satellite Number": 1423,
        "Semi-Major Axis(m)": 6931778.249405717,
        "Time(s)": 600
    },
    {
        "Altitude(m)": 571024.2649294834,
        "Argument of Periapsis(deg)": 0.021263287250185448,
        "Eccentricity": 0.0,
        "Inclination(deg)": 53.0,
        "Latitude(deg)": -51.04699152509494,
        "Longitude(deg)": 149.47313392360905,
        "Mean Anomaly(deg)": -76.30879658304048,
        "RAAN(deg)": 319.96835502527415,
        "Satellite Name": "Starlink Shell 1 1423",
        "Satellite Number": 1423,
        "Semi-Major Axis(m)": 6931778.249405717,
        "Time(s)": 610
    },
    {
        "Altitude(m)": 570948.9029684993,
        "Argument of Periapsis(deg)": 0.021611865729696686,
        "Eccentricity": 0.0,
        "Inclination(deg)": 53.0,
        "Latitude(deg)": -50.85598895003023,
        "Longitude(deg)": 150.37360535351235,
        "Mean Anomaly(deg)": -75.68196537948367,
        "RAAN(deg)": 319.9678362551967,
        "Satellite Name": "Starlink Shell 1 1423",
        "Satellite Number": 1423,
        "Semi-Major Axis(m)": 6931778.249405717,
        "Time(s)": 620
    },
    {
        "Altitude(m)": 570870.4165237283,
        "Argument of Periapsis(deg)": 0.02196044420920792,
        "Eccentricity": 0.0,
        "Inclination(deg)": 53.0,
        "Latitude(deg)": -50.65744470837462,
        "Longitude(deg)": 151.2662789840627,
        "Mean Anomaly(deg)": -75.05513417592697,
        "RAAN(deg)": 319.9673174851192,
        "Satellite Name": "Starlink Shell 1 1423",
        "Satellite Number": 1423,
        "Semi-Major Axis(m)": 6931778.249405717,
        "Time(s)": 630
    },
    {
        "Altitude(m)": 570788.836808592,
        "Argument of Periapsis(deg)": 0.02230902268871916,
        "Eccentricity": 0.0,
        "Inclination(deg)": 53.0,
        "Latitude(deg)": -50.45147360697893,
        "Longitude(deg)": 152.1509805047172,
        "Mean Anomaly(deg)": -74.42830297237028,
        "RAAN(deg)": 319.96679871504176,
        "Satellite Name": "Starlink Shell 1 1423",
        "Satellite Number": 1423,
        "Semi-Major Axis(m)": 6931778.249405717,
        "Time(s)": 640
    },
    {
        "Altitude(m)": 570704.1962581816,
        "Argument of Periapsis(deg)": 0.022657601168230398,
        "Eccentricity": 0.0,
        "Inclination(deg)": 53.0,
        "Latitude(deg)": -50.2381923470398,
        "Longitude(deg)": 153.02755097784683,
        "Mean Anomaly(deg)": -73.80147176881347,
        "RAAN(deg)": 319.9662799449643,
        "Satellite Name": "Starlink Shell 1 1423",
        "Satellite Number": 1423,
        "Semi-Major Axis(m)": 6931778.249405717,
        "Time(s)": 650
    },
    {
        "Altitude(m)": 570616.5285151788,
        "Argument of Periapsis(deg)": 0.023006179647741636,
        "Eccentricity": 0.0,
        "Inclination(deg)": 53.0,
        "Latitude(deg)": -50.01771926228187,
        "Longitude(deg)": 153.8958471116214,
        "Mean Anomaly(deg)": -73.17464056525678,
        "RAAN(deg)": 319.9657611748868,
        "Satellite Name": "Starlink Shell 1 1423",
        "Satellite Number": 1423,
        "Semi-Major Axis(m)": 6931778.249405717,
        "Time(s)": 660
    },
    {
        "Altitude(m)": 570525.8684152324,
        "Argument of Periapsis(deg)": 0.023354758127252868,
        "Eccentricity": 0.0,
        "Inclination(deg)": 53.0,
        "Latitude(deg)": -49.79017406438745,
        "Longitude(deg)": 154.75574148004128,
        "Mean Anomaly(deg)": -72.54780936170015,
        "RAAN(deg)": 319.9652424048093,
        "Satellite Name": "Starlink Shell 1 1423",
        "Satellite Number": 1423,
        "Semi-Major Axis(m)": 6931778.249405717,
        "Time(s)": 670
    },
    {
        "Altitude(m)": 570432.2519718041,
        "Argument of Periapsis(deg)": 0.023703336606764106,
        "Eccentricity": 0.0,
        "Inclination(deg)": 53.0,
        "Latitude(deg)": -49.55567759651695,
        "Longitude(deg)": 155.6071211823026,
        "Mean Anomaly(deg)": -71.9209781581434,
        "RAAN(deg)": 319.96472363473185,
        "Satellite Name": "Starlink Shell 1 1423",
        "Satellite Number": 1423,
        "Semi-Major Axis(m)": 6931778.249405717,
        "Time(s)": 680
    },
    {
        "Altitude(m)": 570335.7163604936,
        "Argument of Periapsis(deg)": 0.024051915086275345,
        "Eccentricity": 0.0,
        "Inclination(deg)": 53.0,
        "Latitude(deg)": -49.31435159565411,
        "Longitude(deg)": 156.4498879723413,
        "Mean Anomaly(deg)": -71.2941469545867,
        "RAAN(deg)": 319.9642048646544,
        "Satellite Name": "Starlink Shell 1 1423",
        "Satellite Number": 1423,
        "Semi-Major Axis(m)": 6931778.249405717,
        "Time(s)": 690
    },
    {
        "Altitude(m)": 570236.2999028733,
        "Argument of Periapsis(deg)": 0.024400493565786583,
        "Eccentricity": 0.0,
        "Inclination(deg)": 53.0,
        "Latitude(deg)": -49.06631846438959,
        "Longitude(deg)": 157.2839583507604,
        "Mean Anomaly(deg)": -70.66731575102995,
        "RAAN(deg)": 319.9636860945769,
        "Satellite Name": "Starlink Shell 1 1423",
        "Satellite Number": 1423,
        "Semi-Major Axis(m)": 6931778.249405717,
        "Time(s)": 700
    },
    {
        "Altitude(m)": 570134.0420497871,
        "Argument of Periapsis(deg)": 0.024749072045297815,
        "Eccentricity": 0.0,
        "Inclination(deg)": 53.0,
        "Latitude(deg)": -48.81170105264772,
        "Longitude(deg)": 158.1092621112598,
        "Mean Anomaly(deg)": -70.04048454747331,
        "RAAN(deg)": 319.9631673244994,
        "Satellite Name": "Starlink Shell 1 1423",
        "Satellite Number": 1423,
        "Semi-Major Axis(m)": 6931778.249405717,
        "Time(s)": 710
    },
    {
        "Altitude(m)": 570028.983364157,
        "Argument of Periapsis(deg)": 0.025097650524809053,
        "Eccentricity": 0.0,
        "Inclination(deg)": 53.0,
        "Latitude(deg)": -48.55062244976088,
        "Longitude(deg)": 158.92574237218645,
        "Mean Anomaly(deg)": -69.41365334391656,
        "RAAN(deg)": 319.962648554422,
        "Satellite Name": "Starlink Shell 1 1423",
        "Satellite Number": 1423,
        "Semi-Major Axis(m)": 6931778.249405717,
        "Time(s)": 720
    },
    {
        "Altitude(m)": 569921.1655033067,
        "Argument of Periapsis(deg)": 0.02544622900432029,
        "Eccentricity": 0.0,
        "Inclination(deg)": 53.0,
        "Latitude(deg)": -48.2832057871913,
        "Longitude(deg)": 159.73335558502828,
        "Mean Anomaly(deg)": -68.78682214035976,
        "RAAN(deg)": 319.9621297843445,
        "Satellite Name": "Starlink Shell 1 1423",
        "Satellite Number": 1423,
        "Semi-Major Axis(m)": 6931778.249405717,
        "Time(s)": 730
    },
    {
        "Altitude(m)": 569810.6312008013,
        "Argument of Periapsis(deg)": 0.02579480748383153,
        "Eccentricity": 0.0,
        "Inclination(deg)": 53.0,
        "Latitude(deg)": -48.00957405210284,
        "Longitude(deg)": 160.53207001148454,
        "Mean Anomaly(deg)": -68.15999093680311,
        "RAAN(deg)": 319.961611014267,
        "Satellite Name": "Starlink Shell 1 1423",
        "Satellite Number": 1423,
        "Semi-Major Axis(m)": 6931778.249405717,
        "Time(s)": 740
    },
    {
        "Altitude(m)": 569697.4242477715,
        "Argument of Periapsis(deg)": 0.026143385963342765,
        "Eccentricity": 0.0,
        "Inclination(deg)": 53.0,
        "Latitude(deg)": -47.729849911906754,
        "Longitude(deg)": 161.3218656991204,
        "Mean Anomaly(deg)": -67.53315973324636,
        "RAAN(deg)": 319.96109224418956,
        "Satellite Name": "Starlink Shell 1 1423",
        "Satellite Number": 1423,
        "Semi-Major Axis(m)": 6931778.249405717,
        "Time(s)": 750
    }
]